[
  {
    "id": "num1",
    "user_id": "asdasd",
    "post_img": [
      "https://cdn.univ20.com/wp-content/uploads/2017/01/a70b434bfba17779d89d9dec8b4f738c.png",
      "https://post-phinf.pstatic.net/MjAxNzEyMDhfMjIx/MDAxNTEyNzM2ODk0NDc5.ze8UNf9PQAL2ootrveS5x6fWeIVt7BuiB_v1JDI31aAg.5hUGwzl7TLa_VTS9yzyjK7g2pqOGwvrRN59Kv3OxNhog.JPEG/pixabay_com_20171208_214027.jpg?type=w1200"
    ],
    "recommendRoutes": [
      {
        "placeName": "동대구역",
        "tips": "ktx 쾌적해ktx 쾌적해요ktx 쾌적해요ktx 쾌적해요ktx 쾌적해요ktx 쾌적해요ktx 쾌적해요요"
      },
      { "placeName": "부산역", "tips": "부산역에서 사진찍기" },
      { "placeName": "해운대", "tips": "바다는 역시 해운대" },
      { "placeName": "해운대1", "tips": "" },
      { "placeName": "해운대2", "tips": "" },
      { "placeName": "해운대3", "tips": "" },
      { "placeName": "해운대4", "tips": "" }
    ],
    "title": "부산 여행",
    "content": "가면 갈수록 매력이 넘치는 도시 부산은 서울에서 KTX를 타면 2시간 30분이면 도착할 수 있습니다. 관광명소들을 지하철, 버스 등 대중교통을 차고 투어할 수 있도록 교통편이 편리하게 잘 되어있죠.가면 갈수록 매력이 넘치는 도시 부산은 서울에서 KTX를 타면 2시간 30분이면 도착할 수 있습니다. 관광명소들을 지하철, 버스 등 대중교통을 차고 투어할 수 있도록 교통편이 편리하게 잘 되어있죠.가면 갈수록 매력이 넘치는 도시 부산은 서울에서 KTX를 타면 2시간 30분이면 도착할 수 있습니다. 관광명소들을 지하철, 버스 등 대중교통을 차고 투어할 수 있도록 교통편이 편리하게 잘 되어있죠.가면 갈수록 매력이 넘치는 도시 부산은 서울에서 KTX를 타면 2시간 30분이면 도착할 수 있습니다. 관광명소들을 지하철, 버스 등 대중교통을 차고 투어할 수 있도록 교통편이 편리하게 잘 되어있죠.",
    "hashTags": ["#부산", "#해운대", "#바다"],
    "figures": {
      "recommend": 90,
      "emotion": 90,
      "revisit": 90
    },
    "like": 20
  },
  {
    "id": "num2",
    "user_id": "asdasd",
    "post_img": [
      "https://post-phinf.pstatic.net/MjAxNzEyMDhfMjIx/MDAxNTEyNzM2ODk0NDc5.ze8UNf9PQAL2ootrveS5x6fWeIVt7BuiB_v1JDI31aAg.5hUGwzl7TLa_VTS9yzyjK7g2pqOGwvrRN59Kv3OxNhog.JPEG/pixabay_com_20171208_214027.jpg?type=w1200",
      "https://cdn.univ20.com/wp-content/uploads/2017/01/a70b434bfba17779d89d9dec8b4f738c.png"
    ],
    "recommendRoutes": [],
    "title": "바다 굿",
    "content": "가면 갈수록 매력이 넘치는 도시 부산은 서울에서 KTX를 타면 2시간 30분이면 도착할 수 있습니다. 관광명소들을 지하철, 버스 등 대중교통을 차고 투어할 수 있도록 교통편이 편리하게 잘 되어있죠.가면 갈수록 매력이 넘치는 도시 부산은 서울에서 KTX를 타면 2시간 30분이면 도착할 수 있습니다. 관광명소들을 지하철, 버스 등 대중교통을 차고 투어할 수 있도록 교통편이 편리하게 잘 되어있죠.가면 갈수록 매력이 넘치는 도시 부산은 서울에서 KTX를 타면 2시간 30분이면 도착할 수 있습니다. 관광명소들을 지하철, 버스 등 대중교통을 차고 투어할 수 있도록 교통편이 편리하게 잘 되어있죠.",
    "hashTags": ["#부산", "#해운대", "#바다"],
    "figures": {
      "recommend": 100,
      "emotion": 100,
      "revisit": 100
    },
    "like": 20
  },
  {
    "id": "num3",
    "user_id": "asdasd",
    "post_img": [
      "https://cdn.univ20.com/wp-content/uploads/2017/01/a70b434bfba17779d89d9dec8b4f738c.png",
      "https://post-phinf.pstatic.net/MjAxNzEyMDhfMjIx/MDAxNTEyNzM2ODk0NDc5.ze8UNf9PQAL2ootrveS5x6fWeIVt7BuiB_v1JDI31aAg.5hUGwzl7TLa_VTS9yzyjK7g2pqOGwvrRN59Kv3OxNhog.JPEG/pixabay_com_20171208_214027.jpg?type=w1200"
    ],
    "recommendRoutes": [
      {
        "placeName": "동대구역",
        "tips": "ktx 쾌적해ktx 쾌적해요ktx 쾌적해요ktx 쾌적해요ktx 쾌적해요ktx 쾌적해요ktx 쾌적해요요"
      },
      { "placeName": "부산역", "tips": "부산역에서 사진찍기" },
      { "placeName": "해운대", "tips": "바다는 역시 해운대" },
      { "placeName": "해운대1", "tips": "" },
      { "placeName": "해운대2", "tips": "" },
      { "placeName": "해운대3", "tips": "" },
      { "placeName": "해운대4", "tips": "" }
    ],
    "title": "기차여행",
    "content": "가면 갈수록 매력이 넘치는 도시 부산은 서울에서 KTX를 타면 2시간 30분이면 도착할 수 있습니다. 관광명소들을 지하철, 버스 등 대중교통을 차고 투어할 수 있도록 교통편이 편리하게 잘 되어있죠.가면 갈수록 매력이 넘치는 도시 부산은 서울에서 KTX를 타면 2시간 30분이면 도착할 수 있습니다. 관광명소들을 지하철, 버스 등 대중교통을 차고 투어할 수 있도록 교통편이 편리하게 잘 되어있죠.가면 갈수록 매력이 넘치는 도시 부산은 서울에서 KTX를 타면 2시간 30분이면 도착할 수 있습니다. 관광명소들을 지하철, 버스 등 대중교통을 차고 투어할 수 있도록 교통편이 편리하게 잘 되어있죠.가면 갈수록 매력이 넘치는 도시 부산은 서울에서 KTX를 타면 2시간 30분이면 도착할 수 있습니다. 관광명소들을 지하철, 버스 등 대중교통을 차고 투어할 수 있도록 교통편이 편리하게 잘 되어있죠.가면 갈수록 매력이 넘치는 도시 부산은 서울에서 KTX를 타면 2시간 30분이면 도착할 수 있습니다. 관광명소들을 지하철, 버스 등 대중교통을 차고 투어할 수 있도록 교통편이 편리하게 잘 되어있죠.가면 갈수록 매력이 넘치는 도시 부산은 서울에서 KTX를 타면 2시간 30분이면 도착할 수 있습니다. 관광명소들을 지하철, 버스 등 대중교통을 차고 투어할 수 있도록 교통편이 편리하게 잘 되어있죠.가면 갈수록 매력이 넘치는 도시 부산은 서울에서 KTX를 타면 2시간 30분이면 도착할 수 있습니다. 관광명소들을 지하철, 버스 등 대중교통을 차고 투어할 수 있도록 교통편이 편리하게 잘 되어있죠.가면 갈수록 매력이 넘치는 도시 부산은 서울에서 KTX를 타면 2시간 30분이면 도착할 수 있습니다. 관광명소들을 지하철, 버스 등 대중교통을 차고 투어할 수 있도록 교통편이 편리하게 잘 되어있죠.가면 갈수록 매력이 넘치는 도시 부산은 서울에서 KTX를 타면 2시간 30분이면 도착할 수 있습니다. 관광명소들을 지하철, 버스 등 대중교통을 차고 투어할 수 있도록 교통편이 편리하게 잘 되어있죠.가면 갈수록 매력이 넘치는 도시 부산은 서울에서 KTX를 타면 2시간 30분이면 도착할 수 있습니다. 관광명소들을 지하철, 버스 등 대중교통을 차고 투어할 수 있도록 교통편이 편리하게 잘 되어있죠.가면 갈수록 매력이 넘치는 도시 부산은 서울에서 KTX를 타면 2시간 30분이면 도착할 수 있습니다. 관광명소들을 지하철, 버스 등 대중교통을 차고 투어할 수 있도록 교통편이 편리하게 잘 되어있죠.가면 갈수록 매력이 넘치는 도시 부산은 서울에서 KTX를 타면 2시간 30분이면 도착할 수 있습니다. 관광명소들을 지하철, 버스 등 대중교통을 차고 투어할 수 있도록 교통편이 편리하게 잘 되어있죠.가면 갈수록 매력이 넘치는 도시 부산은 서울에서 KTX를 타면 2시간 30분이면 도착할 수 있습니다. 관광명소들을 지하철, 버스 등 대중교통을 차고 투어할 수 있도록 교통편이 편리하게 잘 되어있죠.가면 갈수록 매력이 넘치는 도시 부산은 서울에서 KTX를 타면 2시간 30분이면 도착할 수 있습니다. 관광명소들을 지하철, 버스 등 대중교통을 차고 투어할 수 있도록 교통편이 편리하게 잘 되어있죠.가면 갈수록 매력이 넘치는 도시 부산은 서울에서 KTX를 타면 2시간 30분이면 도착할 수 있습니다. 관광명소들을 지하철, 버스 등 대중교통을 차고 투어할 수 있도록 교통편이 편리하게 잘 되어있죠.",
    "hashTags": ["#부산", "#해운대", "#바다"],
    "figures": {
      "recommend": 80,
      "emotion": 80,
      "revisit": 80
    },
    "like": 20
  },
  {
    "id": "num4",
    "user_id": "asdasd",
    "post_img": [
      "https://cdn.univ20.com/wp-content/uploads/2017/01/a70b434bfba17779d89d9dec8b4f738c.png",
      "https://post-phinf.pstatic.net/MjAxNzEyMDhfMjIx/MDAxNTEyNzM2ODk0NDc5.ze8UNf9PQAL2ootrveS5x6fWeIVt7BuiB_v1JDI31aAg.5hUGwzl7TLa_VTS9yzyjK7g2pqOGwvrRN59Kv3OxNhog.JPEG/pixabay_com_20171208_214027.jpg?type=w1200"
    ],
    "recommendRoutes": [
      {
        "placeName": "동대구역",
        "tips": "ktx 쾌적해ktx 쾌적해요ktx 쾌적해요ktx 쾌적해요ktx 쾌적해요ktx 쾌적해요ktx 쾌적해요요"
      },
      { "placeName": "부산역", "tips": "부산역에서 사진찍기" },
      { "placeName": "해운대", "tips": "바다는 역시 해운대" },
      { "placeName": "해운대1", "tips": "" },
      { "placeName": "해운대2", "tips": "" },
      { "placeName": "해운대3", "tips": "" },
      { "placeName": "해운대4", "tips": "" }
    ],
    "title": "ㅎㅎㅎㅎㅎ",
    "content": "가면 갈수록 매력이 넘치는 도시 부산은 서울에서 KTX를 타면 2시간 30분이면 도착할 수 있습니다. 관광명소들을 지하철, 버스 등 대중교통을 차고 투어할 수 있도록 교통편이 편리하게 잘 되어있죠.",
    "hashTags": ["#부산", "#해운대", "#바다"],
    "figures": {
      "recommend": 40,
      "emotion": 40,
      "revisit": 40
    },
    "like": 20
  }
]
